[{"OBJECT_NAME":"STARLINK-30852","OBJECT_ID":"2023-177Y","EPOCH":"2026-03-09T22:00:01.999584","MEAN_MOTION":15.26744834,"ECCENTRICITY":0.00015065,"INCLINATION":43.0011,"RA_OF_ASC_NODE":349.0614,"ARG_OF_PERICENTER":259.0047,"MEAN_ANOMALY":143.1392,"EPHEMERIS_TYPE":0,"CLASSIFICATION_TYPE":"U","NORAD_CAT_ID":58373,"ELEMENT_SET_NO":999,"REV_AT_EPOCH":578,"BSTAR":-0.0004563717,"MEAN_MOTION_DOT":-0.00012483,"MEAN_MOTION_DDOT":0},{"OBJECT_NAME":"TROLL","OBJECT_ID":"2025-009BB","EPOCH":"2026-03-09T05:24:19.835712","MEAN_MOTION":15.28164315,"ECCENTRICITY":0.00018165,"INCLINATION":97.3932,"RA_OF_ASC_NODE":150.7169,"ARG_OF_PERICENTER":59.185,"MEAN_ANOMALY":300.9568,"EPHEMERIS_TYPE":0,"CLASSIFICATION_TYPE":"U","NORAD_CAT_ID":62658,"ELEMENT_SET_NO":999,"REV_AT_EPOCH":11817,"BSTAR":0.00048220305,"MEAN_MOTION_DOT":0.00013174,"MEAN_MOTION_DDOT":0}]
